{
  "type": "FeatureCollection",
  "features": [
    {
      "type": "Feature",
      "geometry": {
        "type": "Point",
        "coordinates": [
          -69.0667,
          -24.2667
        ]
      },
      "properties": {
        "id": "escondida",
        "name": "Escondida",
        "mineral_ids": [
          "copper"
        ],
        "stage": "mine",
        "country_iso3": "CHL",
        "operator": "BHP",
        "capacity_tonnes_per_year": 1050000,
        "source": "seed",
        "source_url": "https://www.usgs.gov/centers/national-minerals-information-center/copper-statistics-and-information",
        "confidence": "high",
        "last_updated": "2026-08-31"
      }
    },
    {
      "type": "Feature",
      "geometry": {
        "type": "Point",
        "coordinates": [
          -68.6833,
          -20.9833
        ]
      },
      "properties": {
        "id": "collahuasi",
        "name": "Collahuasi",
        "mineral_ids": [
          "copper"
        ],
        "stage": "mine",
        "country_iso3": "CHL",
        "operator": "Anglo American and Glencore",
        "capacity_tonnes_per_year": 630000,
        "source": "seed",
        "source_url": "https://www.usgs.gov/centers/national-minerals-information-center/copper-statistics-and-information",
        "confidence": "high",
        "last_updated": "2026-08-31"
      }
    },
    {
      "type": "Feature",
      "geometry": {
        "type": "Point",
        "coordinates": [
          -70.35,
          -34.0833
        ]
      },
      "properties": {
        "id": "el-teniente",
        "name": "El Teniente",
        "mineral_ids": [
          "copper"
        ],
        "stage": "mine",
        "country_iso3": "CHL",
        "operator": "Codelco",
        "capacity_tonnes_per_year": 356000,
        "source": "seed",
        "source_url": "https://www.usgs.gov/centers/national-minerals-information-center/copper-statistics-and-information",
        "confidence": "high",
        "last_updated": "2026-08-31"
      }
    },
    {
      "type": "Feature",
      "geometry": {
        "type": "Point",
        "coordinates": [
          137.1136,
          -4.0533
        ]
      },
      "properties": {
        "id": "grasberg",
        "name": "Grasberg",
        "mineral_ids": [
          "copper"
        ],
        "stage": "mine",
        "country_iso3": "IDN",
        "operator": "Freeport Indonesia",
        "capacity_tonnes_per_year": 750000,
        "source": "seed",
        "source_url": "https://www.usgs.gov/centers/national-minerals-information-center/copper-statistics-and-information",
        "confidence": "high",
        "last_updated": "2026-08-31"
      }
    },
    {
      "type": "Feature",
      "geometry": {
        "type": "Point",
        "coordinates": [
          -109.3653,
          33.0781
        ]
      },
      "properties": {
        "id": "morenci",
        "name": "Morenci",
        "mineral_ids": [
          "copper"
        ],
        "stage": "mine",
        "country_iso3": "USA",
        "operator": "Freeport-McMoRan",
        "capacity_tonnes_per_year": 400000,
        "source": "seed",
        "source_url": "https://www.usgs.gov/centers/national-minerals-information-center/copper-statistics-and-information",
        "confidence": "high",
        "last_updated": "2026-08-31"
      }
    },
    {
      "type": "Feature",
      "geometry": {
        "type": "Point",
        "coordinates": [
          25.4167,
          -10.75
        ]
      },
      "properties": {
        "id": "kamoa-kakula",
        "name": "Kamoa-Kakula",
        "mineral_ids": [
          "copper"
        ],
        "stage": "mine",
        "country_iso3": "COD",
        "operator": "Ivanhoe Mines and Zijin Mining",
        "capacity_tonnes_per_year": 450000,
        "source": "seed",
        "source_url": "https://www.usgs.gov/centers/national-minerals-information-center/copper-statistics-and-information",
        "confidence": "high",
        "last_updated": "2026-08-31"
      }
    },
    {
      "type": "Feature",
      "geometry": {
        "type": "Point",
        "coordinates": [
          -71.5936,
          -16.5344
        ]
      },
      "properties": {
        "id": "cerro-verde",
        "name": "Cerro Verde",
        "mineral_ids": [
          "copper"
        ],
        "stage": "mine",
        "country_iso3": "PER",
        "operator": "Freeport-McMoRan",
        "capacity_tonnes_per_year": 450000,
        "source": "seed",
        "source_url": "https://www.usgs.gov/centers/national-minerals-information-center/copper-statistics-and-information",
        "confidence": "high",
        "last_updated": "2026-08-31"
      }
    },
    {
      "type": "Feature",
      "geometry": {
        "type": "Point",
        "coordinates": [
          -77.06,
          -9.54
        ]
      },
      "properties": {
        "id": "antamina",
        "name": "Antamina",
        "mineral_ids": [
          "copper"
        ],
        "stage": "mine",
        "country_iso3": "PER",
        "operator": "BHP, Glencore and Teck",
        "capacity_tonnes_per_year": 430000,
        "source": "seed",
        "source_url": "https://www.usgs.gov/centers/national-minerals-information-center/copper-statistics-and-information",
        "confidence": "high",
        "last_updated": "2026-08-31"
      }
    },
    {
      "type": "Feature",
      "geometry": {
        "type": "Point",
        "coordinates": [
          -71.3375,
          -17.6394
        ]
      },
      "properties": {
        "id": "ilo-smelter",
        "name": "Ilo smelter",
        "mineral_ids": [
          "copper"
        ],
        "stage": "process",
        "country_iso3": "PER",
        "operator": "Southern Copper",
        "capacity_tonnes_per_year": 400000,
        "source": "seed",
        "source_url": "https://www.usgs.gov/centers/national-minerals-information-center/copper-statistics-and-information",
        "confidence": "high",
        "last_updated": "2026-08-31"
      }
    },
    {
      "type": "Feature",
      "geometry": {
        "type": "Point",
        "coordinates": [
          -68.9,
          -22.3167
        ]
      },
      "properties": {
        "id": "chuquicamata-refinery",
        "name": "Chuquicamata smelter and refinery",
        "mineral_ids": [
          "copper"
        ],
        "stage": "refine",
        "country_iso3": "CHL",
        "operator": "Codelco",
        "capacity_tonnes_per_year": 600000,
        "source": "seed",
        "source_url": "https://www.usgs.gov/centers/national-minerals-information-center/copper-statistics-and-information",
        "confidence": "high",
        "last_updated": "2026-08-31"
      }
    },
    {
      "type": "Feature",
      "geometry": {
        "type": "Point",
        "coordinates": [
          117.2094,
          28.2861
        ]
      },
      "properties": {
        "id": "guixi-smelter",
        "name": "Guixi smelter and refinery",
        "mineral_ids": [
          "copper"
        ],
        "stage": "refine",
        "country_iso3": "CHN",
        "operator": "Jiangxi Copper",
        "capacity_tonnes_per_year": 1200000,
        "source": "seed",
        "source_url": "https://www.usgs.gov/centers/national-minerals-information-center/copper-statistics-and-information",
        "confidence": "high",
        "last_updated": "2026-08-31"
      }
    },
    {
      "type": "Feature",
      "geometry": {
        "type": "Point",
        "coordinates": [
          10.0167,
          53.5167
        ]
      },
      "properties": {
        "id": "aurubis-hamburg",
        "name": "Aurubis Hamburg refinery",
        "mineral_ids": [
          "copper"
        ],
        "stage": "refine",
        "country_iso3": "DEU",
        "operator": "Aurubis",
        "capacity_tonnes_per_year": 450000,
        "source": "seed",
        "source_url": "https://www.usgs.gov/centers/national-minerals-information-center/copper-statistics-and-information",
        "confidence": "high",
        "last_updated": "2026-08-31"
      }
    },
    {
      "type": "Feature",
      "geometry": {
        "type": "Point",
        "coordinates": [
          116.0617,
          -33.8639
        ]
      },
      "properties": {
        "id": "greenbushes",
        "name": "Greenbushes",
        "mineral_ids": [
          "lithium"
        ],
        "stage": "mine",
        "country_iso3": "AUS",
        "operator": "Talison Lithium",
        "capacity_tonnes_per_year": 1620000,
        "source": "seed",
        "source_url": "https://www.usgs.gov/centers/national-minerals-information-center/lithium-statistics-and-information",
        "confidence": "high",
        "last_updated": "2026-08-31"
      }
    },
    {
      "type": "Feature",
      "geometry": {
        "type": "Point",
        "coordinates": [
          118.9,
          -20.95
        ]
      },
      "properties": {
        "id": "pilgangoora",
        "name": "Pilgangoora",
        "mineral_ids": [
          "lithium"
        ],
        "stage": "mine",
        "country_iso3": "AUS",
        "operator": "Pilbara Minerals",
        "capacity_tonnes_per_year": 640000,
        "source": "seed",
        "source_url": "https://www.usgs.gov/centers/national-minerals-information-center/lithium-statistics-and-information",
        "confidence": "high",
        "last_updated": "2026-08-31"
      }
    },
    {
      "type": "Feature",
      "geometry": {
        "type": "Point",
        "coordinates": [
          -68.2,
          -23.5
        ]
      },
      "properties": {
        "id": "salar-de-atacama",
        "name": "Salar de Atacama",
        "mineral_ids": [
          "lithium"
        ],
        "stage": "mine",
        "country_iso3": "CHL",
        "operator": "SQM and Albemarle",
        "capacity_tonnes_per_year": 210000,
        "source": "seed",
        "source_url": "https://www.usgs.gov/centers/national-minerals-information-center/lithium-statistics-and-information",
        "confidence": "high",
        "last_updated": "2026-08-31"
      }
    },
    {
      "type": "Feature",
      "geometry": {
        "type": "Point",
        "coordinates": [
          -66.9,
          -25.4
        ]
      },
      "properties": {
        "id": "salar-del-hombre-muerto",
        "name": "Salar del Hombre Muerto",
        "mineral_ids": [
          "lithium"
        ],
        "stage": "mine",
        "country_iso3": "ARG",
        "operator": "Arcadium Lithium",
        "capacity_tonnes_per_year": 40000,
        "source": "seed",
        "source_url": "https://www.usgs.gov/centers/national-minerals-information-center/lithium-statistics-and-information",
        "confidence": "high",
        "last_updated": "2026-08-31"
      }
    },
    {
      "type": "Feature",
      "geometry": {
        "type": "Point",
        "coordinates": [
          115.7667,
          -32.2333
        ]
      },
      "properties": {
        "id": "kwinana-lithium-refinery",
        "name": "Kwinana lithium hydroxide refinery",
        "mineral_ids": [
          "lithium"
        ],
        "stage": "refine",
        "country_iso3": "AUS",
        "operator": "Tianqi Lithium and IGO",
        "capacity_tonnes_per_year": 24000,
        "source": "seed",
        "source_url": "https://www.usgs.gov/centers/national-minerals-information-center/lithium-statistics-and-information",
        "confidence": "high",
        "last_updated": "2026-08-31"
      }
    },
    {
      "type": "Feature",
      "geometry": {
        "type": "Point",
        "coordinates": [
          114.9167,
          27.8167
        ]
      },
      "properties": {
        "id": "ganfeng-xinyu",
        "name": "Ganfeng Xinyu lithium plant",
        "mineral_ids": [
          "lithium"
        ],
        "stage": "refine",
        "country_iso3": "CHN",
        "operator": "Ganfeng Lithium",
        "capacity_tonnes_per_year": 81000,
        "source": "seed",
        "source_url": "https://www.usgs.gov/centers/national-minerals-information-center/lithium-statistics-and-information",
        "confidence": "high",
        "last_updated": "2026-08-31"
      }
    },
    {
      "type": "Feature",
      "geometry": {
        "type": "Point",
        "coordinates": [
          25.9,
          -10.75
        ]
      },
      "properties": {
        "id": "mutanda",
        "name": "Mutanda",
        "mineral_ids": [
          "copper",
          "cobalt"
        ],
        "stage": "mine",
        "country_iso3": "COD",
        "operator": "Glencore",
        "capacity_tonnes_per_year": 30000,
        "source": "seed",
        "source_url": "https://www.usgs.gov/centers/national-minerals-information-center/cobalt-statistics-and-information",
        "confidence": "high",
        "last_updated": "2026-08-31"
      }
    },
    {
      "type": "Feature",
      "geometry": {
        "type": "Point",
        "coordinates": [
          26.2,
          -10.6
        ]
      },
      "properties": {
        "id": "tenke-fungurume",
        "name": "Tenke Fungurume",
        "mineral_ids": [
          "copper",
          "cobalt"
        ],
        "stage": "mine",
        "country_iso3": "COD",
        "operator": "CMOC",
        "capacity_tonnes_per_year": 40000,
        "source": "seed",
        "source_url": "https://www.usgs.gov/centers/national-minerals-information-center/cobalt-statistics-and-information",
        "confidence": "high",
        "last_updated": "2026-08-31"
      }
    },
    {
      "type": "Feature",
      "geometry": {
        "type": "Point",
        "coordinates": [
          25.47,
          -10.72
        ]
      },
      "properties": {
        "id": "kolwezi-artisanal",
        "name": "Kolwezi artisanal cobalt district",
        "mineral_ids": [
          "cobalt"
        ],
        "stage": "mine",
        "country_iso3": "COD",
        "operator": null,
        "capacity_tonnes_per_year": null,
        "source": "seed",
        "source_url": null,
        "confidence": "low",
        "last_updated": "2026-08-31"
      }
    },
    {
      "type": "Feature",
      "geometry": {
        "type": "Point",
        "coordinates": [
          120.5647,
          30.63
        ]
      },
      "properties": {
        "id": "huayou-tongxiang",
        "name": "Huayou Cobalt Tongxiang refinery",
        "mineral_ids": [
          "cobalt"
        ],
        "stage": "refine",
        "country_iso3": "CHN",
        "operator": "Zhejiang Huayou Cobalt",
        "capacity_tonnes_per_year": 50000,
        "source": "seed",
        "source_url": "https://www.usgs.gov/centers/national-minerals-information-center/cobalt-statistics-and-information",
        "confidence": "high",
        "last_updated": "2026-08-31"
      }
    },
    {
      "type": "Feature",
      "geometry": {
        "type": "Point",
        "coordinates": [
          23.1333,
          63.8333
        ]
      },
      "properties": {
        "id": "kokkola-refinery",
        "name": "Kokkola cobalt refinery",
        "mineral_ids": [
          "cobalt"
        ],
        "stage": "refine",
        "country_iso3": "FIN",
        "operator": "Umicore",
        "capacity_tonnes_per_year": 13000,
        "source": "seed",
        "source_url": "https://www.usgs.gov/centers/national-minerals-information-center/cobalt-statistics-and-information",
        "confidence": "high",
        "last_updated": "2026-08-31"
      }
    },
    {
      "type": "Feature",
      "geometry": {
        "type": "Point",
        "coordinates": [
          48.3,
          -18.83
        ]
      },
      "properties": {
        "id": "ambatovy",
        "name": "Ambatovy",
        "mineral_ids": [
          "cobalt"
        ],
        "stage": "process",
        "country_iso3": "MDG",
        "operator": "Sherritt International",
        "capacity_tonnes_per_year": 3000,
        "source": "seed",
        "source_url": "https://www.usgs.gov/centers/national-minerals-information-center/cobalt-statistics-and-information",
        "confidence": "high",
        "last_updated": "2026-08-31"
      }
    },
    {
      "type": "Feature",
      "geometry": {
        "type": "Point",
        "coordinates": [
          109.9667,
          41.7667
        ]
      },
      "properties": {
        "id": "bayan-obo",
        "name": "Bayan Obo",
        "mineral_ids": [
          "rare-earths"
        ],
        "stage": "mine",
        "country_iso3": "CHN",
        "operator": "China Northern Rare Earth Group",
        "capacity_tonnes_per_year": 70000,
        "source": "seed",
        "source_url": "https://www.usgs.gov/centers/national-minerals-information-center/rare-earths-statistics-and-information",
        "confidence": "high",
        "last_updated": "2026-08-31"
      }
    },
    {
      "type": "Feature",
      "geometry": {
        "type": "Point",
        "coordinates": [
          -115.5328,
          35.4783
        ]
      },
      "properties": {
        "id": "mountain-pass",
        "name": "Mountain Pass",
        "mineral_ids": [
          "rare-earths"
        ],
        "stage": "mine",
        "country_iso3": "USA",
        "operator": "MP Materials",
        "capacity_tonnes_per_year": 45000,
        "source": "seed",
        "source_url": "https://www.usgs.gov/centers/national-minerals-information-center/rare-earths-statistics-and-information",
        "confidence": "high",
        "last_updated": "2026-08-31"
      }
    },
    {
      "type": "Feature",
      "geometry": {
        "type": "Point",
        "coordinates": [
          122.55,
          -28.8611
        ]
      },
      "properties": {
        "id": "mount-weld",
        "name": "Mount Weld",
        "mineral_ids": [
          "rare-earths"
        ],
        "stage": "mine",
        "country_iso3": "AUS",
        "operator": "Lynas Rare Earths",
        "capacity_tonnes_per_year": 22000,
        "source": "seed",
        "source_url": "https://www.usgs.gov/centers/national-minerals-information-center/rare-earths-statistics-and-information",
        "confidence": "high",
        "last_updated": "2026-08-31"
      }
    },
    {
      "type": "Feature",
      "geometry": {
        "type": "Point",
        "coordinates": [
          103.4333,
          3.95
        ]
      },
      "properties": {
        "id": "lynas-kuantan",
        "name": "Lynas Advanced Materials Plant, Kuantan",
        "mineral_ids": [
          "rare-earths"
        ],
        "stage": "refine",
        "country_iso3": "MYS",
        "operator": "Lynas Rare Earths",
        "capacity_tonnes_per_year": 22000,
        "source": "seed",
        "source_url": "https://www.usgs.gov/centers/national-minerals-information-center/rare-earths-statistics-and-information",
        "confidence": "high",
        "last_updated": "2026-08-31"
      }
    },
    {
      "type": "Feature",
      "geometry": {
        "type": "Point",
        "coordinates": [
          114.9333,
          25.8333
        ]
      },
      "properties": {
        "id": "ganzhou-separation-cluster",
        "name": "Ganzhou rare earth separation cluster",
        "mineral_ids": [
          "rare-earths"
        ],
        "stage": "refine",
        "country_iso3": "CHN",
        "operator": null,
        "capacity_tonnes_per_year": null,
        "source": "seed",
        "source_url": null,
        "confidence": "low",
        "last_updated": "2026-08-31"
      }
    },
    {
      "type": "Feature",
      "geometry": {
        "type": "Point",
        "coordinates": [
          97.5,
          25.9
        ]
      },
      "properties": {
        "id": "kachin-heavy-ree",
        "name": "Kachin State heavy rare earth district",
        "mineral_ids": [
          "rare-earths"
        ],
        "stage": "mine",
        "country_iso3": "MMR",
        "operator": null,
        "capacity_tonnes_per_year": null,
        "source": "seed",
        "source_url": null,
        "confidence": "low",
        "last_updated": "2026-08-31"
      }
    }
  ]
}
